[{"OBJECT_NAME":"TURKSAT 1C","OBJECT_ID":"1996-040B","EPOCH":"2026-03-28T20:18:33.813216","MEAN_MOTION":1.00379625,"ECCENTRICITY":0.0003712,"INCLINATION":11.9379,"RA_OF_ASC_NODE":30.7971,"ARG_OF_PERICENTER":206.4082,"MEAN_ANOMALY":335.581,"EPHEMERIS_TYPE":0,"CLASSIFICATION_TYPE":"U","NORAD_CAT_ID":23949,"ELEMENT_SET_NO":999,"REV_AT_EPOCH":10887,"BSTAR":0,"MEAN_MOTION_DOT":-2.03e-6,"MEAN_MOTION_DDOT":0},{"OBJECT_NAME":"UFO 7 (USA 127)","OBJECT_ID":"1996-042A","EPOCH":"2026-03-28T05:02:38.904000","MEAN_MOTION":1.00239269,"ECCENTRICITY":0.0003648,"INCLINATION":11.0397,"RA_OF_ASC_NODE":17.5157,"ARG_OF_PERICENTER":97.7057,"MEAN_ANOMALY":114.4955,"EPHEMERIS_TYPE":0,"CLASSIFICATION_TYPE":"U","NORAD_CAT_ID":23967,"ELEMENT_SET_NO":999,"REV_AT_EPOCH":10867,"BSTAR":0,"MEAN_MOTION_DOT":-2.57e-6,"MEAN_MOTION_DDOT":0},{"OBJECT_NAME":"INMARSAT 3-F2","OBJECT_ID":"1996-053A","EPOCH":"2026-03-28T12:23:38.721696","MEAN_MOTION":0.99982304,"ECCENTRICITY":0.00063722,"INCLINATION":9.6757,"RA_OF_ASC_NODE":54.7427,"ARG_OF_PERICENTER":318.0222,"MEAN_ANOMALY":228.4243,"EPHEMERIS_TYPE":0,"CLASSIFICATION_TYPE":"U","NORAD_CAT_ID":24307,"ELEMENT_SET_NO":999,"REV_AT_EPOCH":10811,"BSTAR":0,"MEAN_MOTION_DOT":7.1e-7,"MEAN_MOTION_DDOT":0},{"OBJECT_NAME":"ECHOSTAR 2","OBJECT_ID":"1996-055A","EPOCH":"2026-03-28T08:42:58.371840","MEAN_MOTION":1.00348867,"ECCENTRICITY":0.00090644,"INCLINATION":11.8396,"RA_OF_ASC_NODE":32.1987,"ARG_OF_PERICENTER":85.122,"MEAN_ANOMALY":102.3218,"EPHEMERIS_TYPE":0,"CLASSIFICATION_TYPE":"U","NORAD_CAT_ID":24313,"ELEMENT_SET_NO":999,"REV_AT_EPOCH":10820,"BSTAR":0,"MEAN_MOTION_DOT":-1.78e-6,"MEAN_MOTION_DDOT":0},{"OBJECT_NAME":"EXPRESS 2","OBJECT_ID":"1996-058A","EPOCH":"2026-03-28T16:53:38.173920","MEAN_MOTION":1.00332139,"ECCENTRICITY":0.0011079,"INCLINATION":14.5768,"RA_OF_ASC_NODE":354.9702,"ARG_OF_PERICENTER":352.5891,"MEAN_ANOMALY":175.0349,"EPHEMERIS_TYPE":0,"CLASSIFICATION_TYPE":"U","NORAD_CAT_ID":24435,"ELEMENT_SET_NO":999,"REV_AT_EPOCH":10800,"BSTAR":0,"MEAN_MOTION_DOT":-2.11e-6,"MEAN_MOTION_DDOT":0},{"OBJECT_NAME":"SL-12 R/B(2)","OBJECT_ID":"1996-058D","EPOCH":"2026-03-28T20:05:25.344096","MEAN_MOTION":1.00247827,"ECCENTRICITY":0.0006894,"INCLINATION":14.3949,"RA_OF_ASC_NODE":351.6706,"ARG_OF_PERICENTER":124.4197,"MEAN_ANOMALY":47.2432,"EPHEMERIS_TYPE":0,"CLASSIFICATION_TYPE":"U","NORAD_CAT_ID":24438,"ELEMENT_SET_NO":999,"REV_AT_EPOCH":10803,"BSTAR":0,"MEAN_MOTION_DOT":1.11e-6,"MEAN_MOTION_DDOT":0},{"OBJECT_NAME":"AFRICASAT-2 (MEASAT-2)","OBJECT_ID":"1996-063B","EPOCH":"2026-03-27T23:30:37.397664","MEAN_MOTION":0.99656556,"ECCENTRICITY":0.00045004,"INCLINATION":12.1375,"RA_OF_ASC_NODE":29.5988,"ARG_OF_PERICENTER":214.4041,"MEAN_ANOMALY":320.594,"EPHEMERIS_TYPE":0,"CLASSIFICATION_TYPE":"U","NORAD_CAT_ID":24653,"ELEMENT_SET_NO":999,"REV_AT_EPOCH":10747,"BSTAR":0,"MEAN_MOTION_DOT":3.7e-7,"MEAN_MOTION_DDOT":0},{"OBJECT_NAME":"INMARSAT 3-F3","OBJECT_ID":"1996-070A","EPOCH":"2026-03-28T18:48:42.139584","MEAN_MOTION":0.99992712,"ECCENTRICITY":0.0005883,"INCLINATION":10.1462,"RA_OF_ASC_NODE":50.4074,"ARG_OF_PERICENTER":293.2172,"MEAN_ANOMALY":251.9723,"EPHEMERIS_TYPE":0,"CLASSIFICATION_TYPE":"U","NORAD_CAT_ID":24674,"ELEMENT_SET_NO":999,"REV_AT_EPOCH":10710,"BSTAR":0,"MEAN_MOTION_DOT":-3.71e-6,"MEAN_MOTION_DDOT":0},{"OBJECT_NAME":"DFH 3-2","OBJECT_ID":"1997-021A","EPOCH":"2026-03-28T16:51:38.498688","MEAN_MOTION":1.00265966,"ECCENTRICITY":0.0004645,"INCLINATION":13.4394,"RA_OF_ASC_NODE":14.4017,"ARG_OF_PERICENTER":87.5277,"MEAN_ANOMALY":103.8713,"EPHEMERIS_TYPE":0,"CLASSIFICATION_TYPE":"U","NORAD_CAT_ID":24798,"ELEMENT_SET_NO":999,"REV_AT_EPOCH":10571,"BSTAR":0,"MEAN_MOTION_DOT":-3.75e-6,"MEAN_MOTION_DDOT":0},{"OBJECT_NAME":"AMC-3","OBJECT_ID":"1997-050A","EPOCH":"2026-03-28T08:44:38.720256","MEAN_MOTION":1.00272008,"ECCENTRICITY":0.00033484,"INCLINATION":7.9494,"RA_OF_ASC_NODE":64.994,"ARG_OF_PERICENTER":305.1825,"MEAN_ANOMALY":234.7528,"EPHEMERIS_TYPE":0,"CLASSIFICATION_TYPE":"U","NORAD_CAT_ID":24936,"ELEMENT_SET_NO":999,"REV_AT_EPOCH":5162,"BSTAR":0,"MEAN_MOTION_DOT":-2.76e-6,"MEAN_MOTION_DDOT":0},{"OBJECT_NAME":"USA 134","OBJECT_ID":"1997-065A","EPOCH":"2026-03-28T08:36:38.534976","MEAN_MOTION":1.0026864,"ECCENTRICITY":0.00065553,"INCLINATION":12.6899,"RA_OF_ASC_NODE":22.3223,"ARG_OF_PERICENTER":316.2845,"MEAN_ANOMALY":223.9385,"EPHEMERIS_TYPE":0,"CLASSIFICATION_TYPE":"U","NORAD_CAT_ID":25019,"ELEMENT_SET_NO":999,"REV_AT_EPOCH":3214,"BSTAR":0,"MEAN_MOTION_DOT":-7.4e-7,"MEAN_MOTION_DDOT":0},{"OBJECT_NAME":"KUPON","OBJECT_ID":"1997-070A","EPOCH":"2026-03-28T05:09:52.841088","MEAN_MOTION":1.00280167,"ECCENTRICITY":0.0005641,"INCLINATION":14.5587,"RA_OF_ASC_NODE":355.2501,"ARG_OF_PERICENTER":309.4969,"MEAN_ANOMALY":50.4383,"EPHEMERIS_TYPE":0,"CLASSIFICATION_TYPE":"U","NORAD_CAT_ID":25045,"ELEMENT_SET_NO":999,"REV_AT_EPOCH":10383,"BSTAR":0,"MEAN_MOTION_DOT":-2.78e-6,"MEAN_MOTION_DDOT":0},{"OBJECT_NAME":"INDOSTAR 1","OBJECT_ID":"1997-071B","EPOCH":"2026-03-27T23:41:38.780160","MEAN_MOTION":1.00279099,"ECCENTRICITY":0.00045138,"INCLINATION":12.8644,"RA_OF_ASC_NODE":20.641,"ARG_OF_PERICENTER":308.3538,"MEAN_ANOMALY":242.5176,"EPHEMERIS_TYPE":0,"CLASSIFICATION_TYPE":"U","NORAD_CAT_ID":25050,"ELEMENT_SET_NO":999,"REV_AT_EPOCH":10398,"BSTAR":0,"MEAN_MOTION_DOT":1.16e-6,"MEAN_MOTION_DDOT":0},{"OBJECT_NAME":"GALAXY 8 (G-8)","OBJECT_ID":"1997-078A","EPOCH":"2026-03-27T23:26:33.880992","MEAN_MOTION":0.99698918,"ECCENTRICITY":0.0007685,"INCLINATION":13.9966,"RA_OF_ASC_NODE":10.4983,"ARG_OF_PERICENTER":26.9841,"MEAN_ANOMALY":179.651,"EPHEMERIS_TYPE":0,"CLASSIFICATION_TYPE":"U","NORAD_CAT_ID":25086,"ELEMENT_SET_NO":999,"REV_AT_EPOCH":10313,"BSTAR":0,"MEAN_MOTION_DOT":8.7e-7,"MEAN_MOTION_DDOT":0},{"OBJECT_NAME":"INTELSAT 804 (IS-804)","OBJECT_ID":"1997-083A","EPOCH":"2026-03-28T13:52:03.086400","MEAN_MOTION":1.00262267,"ECCENTRICITY":0.0009662,"INCLINATION":13.0709,"RA_OF_ASC_NODE":18.2279,"ARG_OF_PERICENTER":15.6735,"MEAN_ANOMALY":167.0086,"EPHEMERIS_TYPE":0,"CLASSIFICATION_TYPE":"U","NORAD_CAT_ID":25110,"ELEMENT_SET_NO":999,"REV_AT_EPOCH":10352,"BSTAR":0,"MEAN_MOTION_DOT":-8.4e-7,"MEAN_MOTION_DDOT":0},{"OBJECT_NAME":"INMARSAT 3-F5","OBJECT_ID":"1998-006B","EPOCH":"2026-03-28T19:39:42.812064","MEAN_MOTION":1.00274605,"ECCENTRICITY":0.0005189,"INCLINATION":9.5159,"RA_OF_ASC_NODE":54.0427,"ARG_OF_PERICENTER":311.4727,"MEAN_ANOMALY":61.6227,"EPHEMERIS_TYPE":0,"CLASSIFICATION_TYPE":"U","NORAD_CAT_ID":25153,"ELEMENT_SET_NO":999,"REV_AT_EPOCH":10309,"BSTAR":0,"MEAN_MOTION_DOT":-3.04e-6,"MEAN_MOTION_DDOT":0},{"OBJECT_NAME":"UFO 8 (USA 138)","OBJECT_ID":"1998-016A","EPOCH":"2026-03-28T15:30:31.142592","MEAN_MOTION":1.00282339,"ECCENTRICITY":0.0007522,"INCLINATION":11.035,"RA_OF_ASC_NODE":23.2468,"ARG_OF_PERICENTER":274.44,"MEAN_ANOMALY":273.2073,"EPHEMERIS_TYPE":0,"CLASSIFICATION_TYPE":"U","NORAD_CAT_ID":25258,"ELEMENT_SET_NO":999,"REV_AT_EPOCH":10305,"BSTAR":0,"MEAN_MOTION_DOT":-2.07e-6,"MEAN_MOTION_DDOT":0}]
