TURKSAT 1C              
1 23949U 96040B   26087.84622469 -.00000203  00000+0  00000+0 0  9994
2 23949  11.9379  30.7971 0003712 206.4082 335.5810  1.00379625108873
UFO 7 (USA 127)         
1 23967U 96042A   26087.21017250 -.00000257  00000+0  00000+0 0  9992
2 23967  11.0397  17.5157 0003648  97.7057 114.4955  1.00239269108675
INMARSAT 3-F2           
1 24307U 96053A   26087.51642039  .00000071  00000+0  00000+0 0  9998
2 24307   9.6757  54.7427 0006372 318.0222 228.4243  0.99982304108117
ECHOSTAR 2              
1 24313U 96055A   26087.36317560 -.00000178  00000+0  00000+0 0  9997
2 24313  11.8396  32.1987 0009064  85.1220 102.3218  1.00348867108205
EXPRESS 2               
1 24435U 96058A   26087.70391405 -.00000211  00000+0  00000+0 0  9991
2 24435  14.5768 354.9702 0011079 352.5891 175.0349  1.00332139108002
SL-12 R/B(2)            
1 24438U 96058D   26087.83709889  .00000111  00000+0  00000+0 0  9995
2 24438  14.3949 351.6706 0006894 124.4197  47.2432  1.00247827108031
AFRICASAT-2 (MEASAT-2)  
1 24653U 96063B   26086.97959951  .00000037  00000+0  00000+0 0  9998
2 24653  12.1375  29.5988 0004500 214.4041 320.5940  0.99656556107470
INMARSAT 3-F3           
1 24674U 96070A   26087.78382106 -.00000371  00000+0  00000+0 0  9993
2 24674  10.1462  50.4074 0005883 293.2172 251.9723  0.99992712107105
DFH 3-2                 
1 24798U 97021A   26087.70252892 -.00000375  00000+0  00000+0 0  9991
2 24798  13.4394  14.4017 0004645  87.5277 103.8713  1.00265966105710
AMC-3                   
1 24936U 97050A   26087.36433704 -.00000276  00000+0  00000+0 0  9992
2 24936   7.9494  64.9940 0003348 305.1825 234.7528  1.00272008 51628
USA 134                 
1 25019U 97065A   26087.35877934 -.00000074  00000+0  00000+0 0  9993
2 25019  12.6899  22.3223 0006555 316.2845 223.9385  1.00268640 32147
KUPON                   
1 25045U 97070A   26087.21519492 -.00000278  00000+0  00000+0 0  9991
2 25045  14.5587 355.2501 0005641 309.4969  50.4383  1.00280167103838
INDOSTAR 1              
1 25050U 97071B   26086.98725440  .00000116  00000+0  00000+0 0  9993
2 25050  12.8644  20.6410 0004513 308.3538 242.5176  1.00279099103980
GALAXY 8 (G-8)          
1 25086U 97078A   26086.97678103  .00000087  00000+0  00000+0 0  9998
2 25086  13.9966  10.4983 0007685  26.9841 179.6510  0.99698918103134
INTELSAT 804 (IS-804)   
1 25110U 97083A   26087.57781350 -.00000084  00000+0  00000+0 0  9996
2 25110  13.0709  18.2279 0009662  15.6735 167.0086  1.00262267103525
INMARSAT 3-F5           
1 25153U 98006B   26087.81924551 -.00000304  00000+0  00000+0 0  9993
2 25153   9.5159  54.0427 0005189 311.4727  61.6227  1.00274605103099
UFO 8 (USA 138)         
1 25258U 98016A   26087.64619378 -.00000207  00000+0  00000+0 0  9991
2 25258  11.0350  23.2468 0007522 274.4400 273.2073  1.00282339103057
